[{"OBJECT_NAME":"ONEWEB-0207","OBJECT_ID":"2021-031AJ","EPOCH":"2026-04-11T06:29:44.678400","MEAN_MOTION":13.14502053,"ECCENTRICITY":0.0001431,"INCLINATION":87.8949,"RA_OF_ASC_NODE":303.0511,"ARG_OF_PERICENTER":88.4845,"MEAN_ANOMALY":271.6449,"EPHEMERIS_TYPE":0,"CLASSIFICATION_TYPE":"U","NORAD_CAT_ID":48242,"ELEMENT_SET_NO":999,"REV_AT_EPOCH":23950,"BSTAR":-0.00048251,"MEAN_MOTION_DOT":-1.66e-06,"MEAN_MOTION_DDOT":0.0},{"OBJECT_NAME":"ONEWEB-0208","OBJECT_ID":"2021-031AK","EPOCH":"2026-04-11T06:03:29.774016","MEAN_MOTION":13.14501569,"ECCENTRICITY":0.0001766,"INCLINATION":87.8936,"RA_OF_ASC_NODE":303.0655,"ARG_OF_PERICENTER":78.4001,"MEAN_ANOMALY":281.7327,"EPHEMERIS_TYPE":0,"CLASSIFICATION_TYPE":"U","NORAD_CAT_ID":48243,"ELEMENT_SET_NO":999,"REV_AT_EPOCH":23951,"BSTAR":0.00034108,"MEAN_MOTION_DOT":1.39e-06,"MEAN_MOTION_DDOT":0.0},{"OBJECT_NAME":"ONEWEB-0200","OBJECT_ID":"2021-031AL","EPOCH":"2026-04-11T01:31:44.597568","MEAN_MOTION":13.1450233,"ECCENTRICITY":0.000167,"INCLINATION":87.8931,"RA_OF_ASC_NODE":303.0908,"ARG_OF_PERICENTER":84.4712,"MEAN_ANOMALY":275.6608,"EPHEMERIS_TYPE":0,"CLASSIFICATION_TYPE":"U","NORAD_CAT_ID":48244,"ELEMENT_SET_NO":999,"REV_AT_EPOCH":23941,"BSTAR":-0.00018366,"MEAN_MOTION_DOT":-5.5e-07,"MEAN_MOTION_DDOT":0.0},{"OBJECT_NAME":"ONEWEB-0217","OBJECT_ID":"2021-031AM","EPOCH":"2026-04-11T01:54:34.975008","MEAN_MOTION":13.14501963,"ECCENTRICITY":0.0001762,"INCLINATION":87.8932,"RA_OF_ASC_NODE":303.0884,"ARG_OF_PERICENTER":76.9145,"MEAN_ANOMALY":283.2182,"EPHEMERIS_TYPE":0,"CLASSIFICATION_TYPE":"U","NORAD_CAT_ID":48245,"ELEMENT_SET_NO":999,"REV_AT_EPOCH":23936,"BSTAR":0.00065114,"MEAN_MOTION_DOT":2.54e-06,"MEAN_MOTION_DDOT":0.0},{"OBJECT_NAME":"ONEWEB-0211","OBJECT_ID":"2021-045A","EPOCH":"2026-04-11T07:02:23.973792","MEAN_MOTION":13.16192795,"ECCENTRICITY":0.0002141,"INCLINATION":87.8935,"RA_OF_ASC_NODE":272.4428,"ARG_OF_PERICENTER":77.6448,"MEAN_ANOMALY":282.4922,"EPHEMERIS_TYPE":0,"CLASSIFICATION_TYPE":"U","NORAD_CAT_ID":48767,"ELEMENT_SET_NO":999,"REV_AT_EPOCH":23564,"BSTAR":0.00013334,"MEAN_MOTION_DOT":6.4e-07,"MEAN_MOTION_DDOT":0.0},{"OBJECT_NAME":"ONEWEB-0223","OBJECT_ID":"2021-045B","EPOCH":"2026-04-11T04:28:55.903296","MEAN_MOTION":13.15547513,"ECCENTRICITY":0.0002123,"INCLINATION":87.894,"RA_OF_ASC_NODE":272.5546,"ARG_OF_PERICENTER":87.374,"MEAN_ANOMALY":272.7634,"EPHEMERIS_TYPE":0,"CLASSIFICATION_TYPE":"U","NORAD_CAT_ID":48768,"ELEMENT_SET_NO":999,"REV_AT_EPOCH":23559,"BSTAR":-0.00011612,"MEAN_MOTION_DOT":-3.1e-07,"MEAN_MOTION_DDOT":0.0},{"OBJECT_NAME":"ONEWEB-0230","OBJECT_ID":"2021-045C","EPOCH":"2026-04-11T00:08:49.213824","MEAN_MOTION":13.15547429,"ECCENTRICITY":0.0001723,"INCLINATION":87.8931,"RA_OF_ASC_NODE":272.6107,"ARG_OF_PERICENTER":98.8478,"MEAN_ANOMALY":261.2847,"EPHEMERIS_TYPE":0,"CLASSIFICATION_TYPE":"U","NORAD_CAT_ID":48769,"ELEMENT_SET_NO":999,"REV_AT_EPOCH":23583,"BSTAR":0.0004981,"MEAN_MOTION_DOT":2e-06,"MEAN_MOTION_DDOT":0.0},{"OBJECT_NAME":"ONEWEB-0237","OBJECT_ID":"2021-045D","EPOCH":"2026-04-11T05:21:24.894720","MEAN_MOTION":13.15547467,"ECCENTRICITY":0.0002038,"INCLINATION":87.8931,"RA_OF_ASC_NODE":272.5689,"ARG_OF_PERICENTER":93.9878,"MEAN_ANOMALY":266.1486,"EPHEMERIS_TYPE":0,"CLASSIFICATION_TYPE":"U","NORAD_CAT_ID":48770,"ELEMENT_SET_NO":999,"REV_AT_EPOCH":23558,"BSTAR":0.00044845000000000003,"MEAN_MOTION_DOT":1.82e-06,"MEAN_MOTION_DDOT":0.0},{"OBJECT_NAME":"ONEWEB-0235","OBJECT_ID":"2021-045E","EPOCH":"2026-04-11T04:44:53.722464","MEAN_MOTION":13.15548115,"ECCENTRICITY":0.0002165,"INCLINATION":87.8941,"RA_OF_ASC_NODE":272.5532,"ARG_OF_PERICENTER":89.6239,"MEAN_ANOMALY":270.514,"EPHEMERIS_TYPE":0,"CLASSIFICATION_TYPE":"U","NORAD_CAT_ID":48771,"ELEMENT_SET_NO":999,"REV_AT_EPOCH":23557,"BSTAR":-0.00026905,"MEAN_MOTION_DOT":-8.8e-07,"MEAN_MOTION_DDOT":0.0},{"OBJECT_NAME":"ONEWEB-0242","OBJECT_ID":"2021-045F","EPOCH":"2026-04-11T06:25:17.118336","MEAN_MOTION":13.15547961,"ECCENTRICITY":0.0001952,"INCLINATION":87.8945,"RA_OF_ASC_NODE":272.5353,"ARG_OF_PERICENTER":96.8213,"MEAN_ANOMALY":263.3139,"EPHEMERIS_TYPE":0,"CLASSIFICATION_TYPE":"U","NORAD_CAT_ID":48772,"ELEMENT_SET_NO":999,"REV_AT_EPOCH":23562,"BSTAR":-0.00013999,"MEAN_MOTION_DOT":-4e-07,"MEAN_MOTION_DDOT":0.0},{"OBJECT_NAME":"ONEWEB-0241","OBJECT_ID":"2021-045G","EPOCH":"2026-04-11T04:17:31.255872","MEAN_MOTION":13.15547394,"ECCENTRICITY":0.0002018,"INCLINATION":87.8933,"RA_OF_ASC_NODE":272.5791,"ARG_OF_PERICENTER":84.2761,"MEAN_ANOMALY":275.86,"EPHEMERIS_TYPE":0,"CLASSIFICATION_TYPE":"U","NORAD_CAT_ID":48773,"ELEMENT_SET_NO":999,"REV_AT_EPOCH":23552,"BSTAR":-0.0001461,"MEAN_MOTION_DOT":-4.2e-07,"MEAN_MOTION_DDOT":0.0},{"OBJECT_NAME":"ONEWEB-0243","OBJECT_ID":"2021-045H","EPOCH":"2026-04-11T05:03:10.243008","MEAN_MOTION":13.15547787,"ECCENTRICITY":0.0002292,"INCLINATION":87.8931,"RA_OF_ASC_NODE":272.5841,"ARG_OF_PERICENTER":99.8538,"MEAN_ANOMALY":260.2852,"EPHEMERIS_TYPE":0,"CLASSIFICATION_TYPE":"U","NORAD_CAT_ID":48774,"ELEMENT_SET_NO":999,"REV_AT_EPOCH":23555,"BSTAR":-0.00013919,"MEAN_MOTION_DOT":-4e-07,"MEAN_MOTION_DDOT":0.0},{"OBJECT_NAME":"ONEWEB-0222","OBJECT_ID":"2021-045J","EPOCH":"2026-04-11T04:39:10.865664","MEAN_MOTION":13.15550671,"ECCENTRICITY":0.0001882,"INCLINATION":87.894,"RA_OF_ASC_NODE":272.5497,"ARG_OF_PERICENTER":90.9749,"MEAN_ANOMALY":269.1597,"EPHEMERIS_TYPE":0,"CLASSIFICATION_TYPE":"U","NORAD_CAT_ID":48775,"ELEMENT_SET_NO":999,"REV_AT_EPOCH":23559,"BSTAR":-0.00022382,"MEAN_MOTION_DOT":-7.1e-07,"MEAN_MOTION_DDOT":0.0},{"OBJECT_NAME":"ONEWEB-0244","OBJECT_ID":"2021-045K","EPOCH":"2026-04-11T05:16:51.043872","MEAN_MOTION":13.15548173,"ECCENTRICITY":0.0001923,"INCLINATION":87.8944,"RA_OF_ASC_NODE":272.5351,"ARG_OF_PERICENTER":95.0526,"MEAN_ANOMALY":265.0824,"EPHEMERIS_TYPE":0,"CLASSIFICATION_TYPE":"U","NORAD_CAT_ID":48776,"ELEMENT_SET_NO":999,"REV_AT_EPOCH":23616,"BSTAR":0.00015431,"MEAN_MOTION_DOT":7.1e-07,"MEAN_MOTION_DDOT":0.0},{"OBJECT_NAME":"ONEWEB-0247","OBJECT_ID":"2021-045L","EPOCH":"2026-04-11T05:12:17.569728","MEAN_MOTION":13.15547154,"ECCENTRICITY":0.0002598,"INCLINATION":87.8929,"RA_OF_ASC_NODE":272.5776,"ARG_OF_PERICENTER":94.6445,"MEAN_ANOMALY":265.4982,"EPHEMERIS_TYPE":0,"CLASSIFICATION_TYPE":"U","NORAD_CAT_ID":48777,"ELEMENT_SET_NO":999,"REV_AT_EPOCH":23560,"BSTAR":8.8742e-06,"MEAN_MOTION_DOT":1.6e-07,"MEAN_MOTION_DDOT":0.0},{"OBJECT_NAME":"ONEWEB-0245","OBJECT_ID":"2021-045M","EPOCH":"2026-04-11T05:05:25.903104","MEAN_MOTION":13.15546736,"ECCENTRICITY":0.0001806,"INCLINATION":87.8939,"RA_OF_ASC_NODE":272.5514,"ARG_OF_PERICENTER":87.4195,"MEAN_ANOMALY":272.7142,"EPHEMERIS_TYPE":0,"CLASSIFICATION_TYPE":"U","NORAD_CAT_ID":48778,"ELEMENT_SET_NO":999,"REV_AT_EPOCH":23557,"BSTAR":-9.2402e-05,"MEAN_MOTION_DOT":-2.2e-07,"MEAN_MOTION_DDOT":0.0}]