ONEWEB-0207             
1 48242U 21031AJ  26101.27065600 -.00000166  00000+0 -48251-3 0  9990
2 48242  87.8949 303.0511 0001431  88.4845 271.6449 13.14502053239502
ONEWEB-0208             
1 48243U 21031AK  26101.25242794  .00000139  00000+0  34108-3 0  9994
2 48243  87.8936 303.0655 0001766  78.4001 281.7327 13.14501569239511
ONEWEB-0200             
1 48244U 21031AL  26101.06371062 -.00000055  00000+0 -18366-3 0  9992
2 48244  87.8931 303.0908 0001670  84.4712 275.6608 13.14502330239418
ONEWEB-0217             
1 48245U 21031AM  26101.07957147  .00000254  00000+0  65114-3 0  9990
2 48245  87.8932 303.0884 0001762  76.9145 283.2182 13.14501963239368
ONEWEB-0211             
1 48767U 21045A   26101.29333303  .00000064  00000+0  13334-3 0  9996
2 48767  87.8935 272.4428 0002141  77.6448 282.4922 13.16192795235640
ONEWEB-0223             
1 48768U 21045B   26101.18675814 -.00000031  00000+0 -11612-3 0  9994
2 48768  87.8940 272.5546 0002123  87.3740 272.7634 13.15547513235599
ONEWEB-0230             
1 48769U 21045C   26101.00612516  .00000200  00000+0  49810-3 0  9993
2 48769  87.8931 272.6107 0001723  98.8478 261.2847 13.15547429235836
ONEWEB-0237             
1 48770U 21045D   26101.22320480  .00000182  00000+0  44845-3 0  9997
2 48770  87.8931 272.5689 0002038  93.9878 266.1486 13.15547467235589
ONEWEB-0235             
1 48771U 21045E   26101.19784401 -.00000088  00000+0 -26905-3 0  9995
2 48771  87.8941 272.5532 0002165  89.6239 270.5140 13.15548115235578
ONEWEB-0242             
1 48772U 21045F   26101.26755924 -.00000040  00000+0 -13999-3 0  9999
2 48772  87.8945 272.5353 0001952  96.8213 263.3139 13.15547961235621
ONEWEB-0241             
1 48773U 21045G   26101.17883398 -.00000042  00000+0 -14610-3 0  9990
2 48773  87.8933 272.5791 0002018  84.2761 275.8600 13.15547394235528
ONEWEB-0243             
1 48774U 21045H   26101.21053522 -.00000040  00000+0 -13919-3 0  9993
2 48774  87.8931 272.5841 0002292  99.8538 260.2852 13.15547787235557
ONEWEB-0222             
1 48775U 21045J   26101.19387576 -.00000071  00000+0 -22382-3 0  9998
2 48775  87.8940 272.5497 0001882  90.9749 269.1597 13.15550671235599
ONEWEB-0244             
1 48776U 21045K   26101.22003523  .00000071  00000+0  15431-3 0  9995
2 48776  87.8944 272.5351 0001923  95.0526 265.0824 13.15548173236164
ONEWEB-0247             
1 48777U 21045L   26101.21687002  .00000016  00000+0  88742-5 0  9991
2 48777  87.8929 272.5776 0002598  94.6445 265.4982 13.15547154235608
ONEWEB-0245             
1 48778U 21045M   26101.21210536 -.00000022  00000+0 -92402-4 0  9992
2 48778  87.8939 272.5514 0001806  87.4195 272.7142 13.15546736235573
